[{"OBJECT_NAME":"SDA_1677","OBJECT_ID":"2025-230P","EPOCH":"2026-03-09T17:45:54.981216","MEAN_MOTION":13.84685183,"ECCENTRICITY":0.00034516,"INCLINATION":81.2982,"RA_OF_ASC_NODE":303.9556,"ARG_OF_PERICENTER":66.1356,"MEAN_ANOMALY":294.0162,"EPHEMERIS_TYPE":0,"CLASSIFICATION_TYPE":"U","NORAD_CAT_ID":65987,"ELEMENT_SET_NO":999,"REV_AT_EPOCH":2004,"BSTAR":0.00016358526,"MEAN_MOTION_DOT":1.96e-6,"MEAN_MOTION_DDOT":0},{"OBJECT_NAME":"SL-24 R\/B","OBJECT_ID":"2007-026B","EPOCH":"2026-03-09T22:40:02.756640","MEAN_MOTION":14.45860602,"ECCENTRICITY":0.0332074,"INCLINATION":97.4507,"RA_OF_ASC_NODE":51.0844,"ARG_OF_PERICENTER":307.0569,"MEAN_ANOMALY":107.0995,"EPHEMERIS_TYPE":0,"CLASSIFICATION_TYPE":"U","NORAD_CAT_ID":31699,"ELEMENT_SET_NO":999,"REV_AT_EPOCH":98518,"BSTAR":0.00024180062,"MEAN_MOTION_DOT":1.655e-5,"MEAN_MOTION_DDOT":0}]
